DUBAISAT-1              
1 35682U 09041B   26176.36453388  .00000825  00000+0  12972-3 0  9998
2 35682  98.0059 309.5329 0011341  50.1787 310.0418 14.75135238906300
OCEANSAT-2              
1 35931U 09051A   26176.56339516 -.00000222  00000+0 -12593-3 0  9996
2 35931  98.2320 162.5790 0015908 210.8391 149.1842 13.99661916880505
WORLDVIEW-2 (WV-2)      
1 35946U 09055A   26176.51411998  .00000093  00000+0  45262-4 0  9990
2 35946  98.4735 249.8488 0004235 181.5706 178.5469 14.37901613876848
SMOS                    
1 36036U 09059A   26176.52899067  .00000255  00000+0  95077-4 0  9992
2 36036  98.4426   3.7417 0001317  88.8020 271.3319 14.39776827874653
YAOGAN-7                
1 36110U 09069A   26176.55119329  .00000467  00000+0  71662-4 0  9994
2 36110  98.0063  62.3662 0024997  15.5974 344.6002 14.78017537890869
TANDEM-X                
1 36605U 10030A   26175.56897165  .00000223  00000+0  13790-4 0  9992
2 36605  97.4453 183.1708 0001789  93.6569 266.4871 15.19149086887769
CARTOSAT-2B             
1 36795U 10035A   26176.59538625  .00000723  00000+0  10567-3 0  9997
2 36795  97.9954 227.0920 0011923 156.7398 203.4355 14.78671493861098
YAOGAN-10               
1 36834U 10038A   26176.65269374  .00002037  00000+0  24296-3 0  9997
2 36834  97.8979 199.9895 0001730  86.2747  58.4174 14.85373158858465
COSMO-SKYMED 4          
1 37216U 10060A   26176.61252216  .00000796  00000+0  10659-3 0  9998
2 37216  97.8892   0.0904 0001476  88.0246 272.1136 14.82152927845812
RESOURCESAT-2           
1 37387U 11015A   26176.53495383  .00000090  00000+0  61267-4 0  9992
2 37387  98.7641 243.9191 0010461 229.0188 131.0085 14.21601716787364
HAIYANG-2A              
1 37781U 11043A   26176.62916847 -.00000005  00000+0  40912-4 0  9995
2 37781  99.3398 179.1160 0005037  77.1253 283.0459 13.74103001747812
RASAT                   
1 37791U 11044D   26176.57223934  .00000160  00000+0  36145-4 0  9993
2 37791  98.0574 267.8414 0020800 162.1251 322.6196 14.68172169794411
SRMSAT                  
1 37841U 11058D   26176.55515866  .00000372  00000+0  58142-4 0  9996
2 37841  19.9735   8.8199 0011709 296.2835  90.0618 14.11577173759009
PLEIADES 1A             
1 38012U 11076F   26176.65209462  .00000416  00000+0  99302-4 0  9992
2 38012  98.1976 251.6418 0001757  90.8104  74.8605 14.58536085773221
ZIYUAN 1-02C (ZY 1-02C) 
1 38038U 11079A   26176.65186977  .00000541  00000+0  19233-3 0  9991
2 38038  98.4071 243.7838 0005168 286.7050 234.0046 14.38221395760422
ARIRANG-3 (KOMPSAT-3)   
1 38338U 12025B   26176.58651595  .00000402  00000+0  89083-4 0  9998
2 38338  98.1174 133.9016 0006826  88.4899 271.7084 14.62212920752572
EXACTVIEW-1 (ADS-1B)    
1 38709U 12039C   26176.24539290  .00000099  00000+0  61977-4 0  9999
2 38709  98.9785 293.8179 0011544 144.2545 215.9408 14.24986740723853
SPOT 6                  
1 38755U 12047A   26176.63581536  .00000242  00000+0  61946-4 0  9998
2 38755  98.2118 243.8466 0001362  74.3518 285.7831 14.58527426734284
PLEIADES 1B             
1 39019U 12068A   26176.58610376  .00000373  00000+0  90109-4 0  9992
2 39019  98.1947 251.5227 0001729  87.4083 272.7315 14.58565486722072
GOKTURK 2               
1 39030U 12073A   26176.55740179  .00000186  00000+0  34277-4 0  9999
2 39030  97.6823  13.5691 0001278  56.2657 303.8674 14.75549053725745
LANDSAT 8               
1 39084U 13008A   26176.53984053  .00000294  00000+0  75443-4 0  9996
2 39084  98.2299 246.5758 0001361  93.5046 266.6308 14.57099651699114
SARAL                   
1 39086U 13009A   26176.49042062  .00000094  00000+0  50476-4 0  9996
2 39086  98.5558   2.9524 0000664 241.0297 119.0821 14.32857847696799
GAOFEN-1                
1 39150U 13018A   26176.60165427  .00000421  00000+0  67509-4 0  9991
2 39150  97.9094 248.4991 0015807 236.9574 123.0118 14.76544475709483
VNREDSAT 1              
1 39160U 13021B   26176.62737839  .00000565  00000+0  11427-3 0  9996
2 39160  97.9081 229.7201 0001746  85.3544 274.7859 14.64864774701523
ARIRANG-5 (KOMPSAT-5)   
1 39227U 13042A   26176.61275374  .00001115  00000+0  83976-4 0  9994
2 39227  97.6192   3.1945 0005155 102.8042 257.3761 15.04507149705126
SKYSAT-A                
1 39418U 13066C   26176.39206669  .00002879  00000+0  16593-3 0  9996
2 39418  97.3814 225.5278 0019678 286.9687  72.9388 15.13015665689729
DUBAISAT-2              
1 39419U 13066D   26176.55180113  .00004569  00000+0  28278-3 0  9991
2 39419  97.4564 166.4765 0011565  15.2096 344.9479 15.10239498687653
GPM-CORE                
1 39574U 14009C   26176.56146808  .00013133  00000+0  28369-3 0  9993
2 39574  64.9720 280.0770 0011479 255.0230 104.9640 15.44739159699108
SENTINEL-1A             
1 39634U 14016A   26176.59605889 -.00000226  00000+0 -38231-4 0  9991
2 39634  98.1782 184.0059 0001395  81.1871 278.9486 14.59199618651248
KAZEOSAT 1              
1 39731U 14024A   26176.62537813  .00000342  00000+0  11711-3 0  9993
2 39731  98.3205 248.8632 0001241  75.0370 285.0957 14.42083613639775
