OBJECT_NAME,OBJECT_ID,EPOCH,MEAN_MOTION,ECCENTRICITY,INCLINATION,RA_OF_ASC_NODE,ARG_OF_PERICENTER,MEAN_ANOMALY,EPHEMERIS_TYPE,CLASSIFICATION_TYPE,NORAD_CAT_ID,ELEMENT_SET_NO,REV_AT_EPOCH,BSTAR,MEAN_MOTION_DOT,MEAN_MOTION_DDOT
DUBAISAT-1,2009-041B,2026-06-25T08:44:55.727232,14.75135238,.00113416,98.0059,309.5329,50.1787,310.0418,0,U,35682,999,90630,.12972239E-3,.825E-5,0
OCEANSAT-2,2009-051A,2026-06-25T13:31:17.341824,13.99661916,.00159086,98.2320,162.5790,210.8391,149.1842,0,U,35931,999,88050,-.12592731E-3,-.222E-5,0
WORLDVIEW-2 (WV-2),2009-055A,2026-06-25T12:20:19.966272,14.37901613,.00042359,98.4735,249.8488,181.5706,178.5469,0,U,35946,999,87684,.45261853E-4,.93E-6,0
SMOS,2009-059A,2026-06-25T12:41:44.793888,14.39776827,.00013173,98.4426,3.7417,88.8020,271.3319,0,U,36036,999,87465,.95076878E-4,.255E-5,0
YAOGAN-7,2009-069A,2026-06-25T13:13:43.100256,14.78017537,.0024997,98.0063,62.3662,15.5974,344.6002,0,U,36110,999,89086,.71662054E-4,.467E-5,0
TANDEM-X,2010-030A,2026-06-24T13:39:19.150560,15.19149086,.0001789,97.4453,183.1708,93.6569,266.4871,0,U,36605,999,88776,.13790195E-4,.223E-5,0
CARTOSAT-2B,2010-035A,2026-06-25T14:17:21.372000,14.78671493,.00119237,97.9954,227.0920,156.7398,203.4355,0,U,36795,999,86109,.10566663E-3,.723E-5,0
YAOGAN-10,2010-038A,2026-06-25T15:39:52.739136,14.85373158,.00017302,97.8979,199.9895,86.2747,58.4174,0,U,36834,999,85846,.2429605E-3,.2037E-4,0
COSMO-SKYMED 4,2010-060A,2026-06-25T14:42:01.914624,14.82152927,.00014765,97.8892,0.0904,88.0246,272.1136,0,U,37216,999,84581,.10658707E-3,.796E-5,0
RESOURCESAT-2,2011-015A,2026-06-25T12:50:20.010912,14.21601716,.00104617,98.7641,243.9191,229.0188,131.0085,0,U,37387,999,78736,.61266628E-4,.9E-6,0
HAIYANG-2A,2011-043A,2026-06-25T15:06:00.155808,13.74103001,.0005037,99.3398,179.1160,77.1253,283.0459,0,U,37781,999,74781,.40912381E-4,-.5E-7,0
RASAT,2011-044D,2026-06-25T13:44:01.478976,14.68172169,.00208008,98.0574,267.8414,162.1251,322.6196,0,U,37791,999,79441,.36145229E-4,.16E-5,0
SRMSAT,2011-058D,2026-06-25T13:19:25.708224,14.11577173,.00117096,19.9735,8.8199,296.2835,90.0618,0,U,37841,999,75900,.58141977E-4,.372E-5,0
PLEIADES 1A,2011-076F,2026-06-25T15:39:00.975168,14.58536085,.00017578,98.1976,251.6418,90.8104,74.8605,0,U,38012,999,77322,.99301747E-4,.416E-5,0
ZIYUAN 1-02C (ZY 1-02C),2011-079A,2026-06-25T15:38:41.548128,14.38221395,.00051683,98.4071,243.7838,286.7050,234.0046,0,U,38038,999,76042,.19233097E-3,.541E-5,0
ARIRANG-3 (KOMPSAT-3),2012-025B,2026-06-25T14:04:34.978080,14.62212920,.00068264,98.1174,133.9016,88.4899,271.7084,0,U,38338,999,75257,.89082919E-4,.402E-5,0
EXACTVIEW-1 (ADS-1B),2012-039C,2026-06-25T05:53:21.946560,14.24986740,.0011544,98.9785,293.8179,144.2545,215.9408,0,U,38709,999,72385,.61977211E-4,.99E-6,0
SPOT 6,2012-047A,2026-06-25T15:15:34.447104,14.58527426,.0001362,98.2118,243.8466,74.3518,285.7831,0,U,38755,999,73428,.6194577E-4,.242E-5,0
PLEIADES 1B,2012-068A,2026-06-25T14:03:59.364864,14.58565486,.00017292,98.1947,251.5227,87.4083,272.7315,0,U,39019,999,72207,.90109201E-4,.373E-5,0
GOKTURK 2,2012-073A,2026-06-25T13:22:39.514656,14.75549053,.00012782,97.6823,13.5691,56.2657,303.8674,0,U,39030,999,72574,.34277243E-4,.186E-5,0
LANDSAT 8,2013-008A,2026-06-25T12:57:22.221792,14.57099651,.00013614,98.2299,246.5758,93.5046,266.6308,0,U,39084,999,69911,.75443288E-4,.294E-5,0
SARAL,2013-009A,2026-06-25T11:46:12.341568,14.32857847,.00006641,98.5558,2.9524,241.0297,119.0821,0,U,39086,999,69679,.50476389E-4,.94E-6,0
GAOFEN-1,2013-018A,2026-06-25T14:26:22.928928,14.76544475,.0015807,97.9094,248.4991,236.9574,123.0118,0,U,39150,999,70948,.67508732E-4,.421E-5,0
VNREDSAT 1,2013-021B,2026-06-25T15:03:25.492896,14.64864774,.00017463,97.9081,229.7201,85.3544,274.7859,0,U,39160,999,70152,.11427196E-3,.565E-5,0
ARIRANG-5 (KOMPSAT-5),2013-042A,2026-06-25T14:42:21.923136,15.04507149,.00051556,97.6192,3.1945,102.8042,257.3761,0,U,39227,999,70512,.83976214E-4,.1115E-4,0
SKYSAT-A,2013-066C,2026-06-25T09:24:34.562016,15.13015665,.00196789,97.3814,225.5278,286.9687,72.9388,0,U,39418,999,68972,.16592614E-3,.2879E-4,0
DUBAISAT-2,2013-066D,2026-06-25T13:14:35.617632,15.10239498,.00115652,97.4564,166.4765,15.2096,344.9479,0,U,39419,999,68765,.28278228E-3,.4569E-4,0
GPM-CORE,2014-009C,2026-06-25T13:28:30.842112,15.44739159,.00114799,64.9720,280.0770,255.0230,104.9640,0,U,39574,999,69910,.28368788E-3,.13133E-3,0
SENTINEL-1A,2014-016A,2026-06-25T14:18:19.488096,14.59199618,.00013953,98.1782,184.0059,81.1871,278.9486,0,U,39634,999,65124,-.3823082E-4,-.226E-5,0
KAZEOSAT 1,2014-024A,2026-06-25T15:00:32.670432,14.42083613,.00012412,98.3205,248.8632,75.0370,285.0957,0,U,39731,999,63977,.1171094E-3,.342E-5,0
